{
  "type": "FeatureCollection",
  "name": "Batas Kawasan Geopark Rinjani Lombok",
  "crs": {
    "type": "name",
    "properties": {
      "name": "urn:ogc:def:crs:OGC:1.3:CRS84"
    }
  },
  "features": [
    {
      "type": "Feature",
      "properties": {
        "OBJECTID": 1,
        "Kab": "Batas Laut",
        "Luas": "473.9 Km2"
      },
      "geometry": {
        "type": "MultiPolygon",
        "coordinates": [
          [
            [
              [
                116.412445,
                -8.640245
              ],
              [
                116.41328,
                -8.64006
              ],
              [
                116.414037,
                -8.639921
              ],
              [
                116.413242,
                -8.640083
              ],
              [
                116.412445,
                -8.640245
              ]
            ]
          ]
        ]
      }
    },
    {
      "type": "Feature",
      "properties": {
        "OBJECTID": 1,
        "Kab": "Batas Laut",
        "Luas": "473.9 Km2"
      },
      "geometry": {
        "type": "MultiPolygon",
        "coordinates": [
          [
            [
              [
                116.414911,
                -8.639746
              ],
              [
                116.41568,
                -8.63955
              ],
              [
                116.4159,
                -8.63955
              ],
              [
                116.41946,
                -8.6389
              ],
              [
                116.420544,
                -8.638716
              ],
              [
                116.418236,
                -8.639132
              ],
              [
                116.416618,
                -8.639428
              ],
              [
                116.414911,
                -8.639746
              ]
            ]
          ]
        ]
      }
    },
    {
      "type": "Feature",
      "properties": {
        "OBJECTID": 1,
        "Kab": "Batas Laut",
        "Luas": "473.9 Km2"
      },
      "geometry": {
        "type": "MultiPolygon",
        "coordinates": [
          [
            [
              [
                116.401084,
                -8.639157
              ],
              [
                116.398775,
                -8.638649
              ],
              [
                116.39891,
                -8.63864
              ],
              [
                116.40015,
                -8.63894
              ],
              [
                116.401084,
                -8.639157
              ]
            ]
          ]
        ]
      }
    },
    {
      "type": "Feature",
      "properties": {
        "OBJECTID": 1,
        "Kab": "Batas Laut",
        "Luas": "473.9 Km2"
      },
      "geometry": {
        "type": "MultiPolygon",
        "coordinates": [
          [
            [
              [
                116.422405,
                -8.638401
              ],
              [
                116.42247,
                -8.63839
              ],
              [
                116.422614,
                -8.63839
              ],
              [
                116.422405,
                -8.638401
              ]
            ]
          ]
        ]
      }
    },
    {
      "type": "Feature",
      "properties": {
        "OBJECTID": 1,
        "Kab": "Batas Laut",
        "Luas": "473.9 Km2"
      },
      "geometry": {
        "type": "MultiPolygon",
        "coordinates": [
          [
            [
              [
                116.453248,
                -8.631668
              ],
              [
                116.45354,
                -8.63156
              ],
              [
                116.453586,
                -8.631534
              ],
              [
                116.453513,
                -8.631602
              ],
              [
                116.453248,
                -8.631668
              ]
            ]
          ]
        ]
      }
    },
    {
      "type": "Feature",
      "properties": {
        "OBJECTID": 1,
        "Kab": "Batas Laut",
        "Luas": "473.9 Km2"
      },
      "geometry": {
        "type": "MultiPolygon",
        "coordinates": [
          [
            [
              [
                116.719382,
                -8.494024
              ],
              [
                116.714513,
                -8.496062
              ],
              [
                116.707155,
                -8.498784
              ],
              [
                116.696339,
                -8.501556
              ],
              [
                116.68653,
                -8.50264
              ],
              [
                116.67288,
                -8.50372
              ],
              [
                116.67201,
                -8.50389
              ],
              [
                116.67172,
                -8.50402
              ],
              [
                116.6701,
                -8.503967
              ],
              [
                116.66918,
                -8.50389
              ],
              [
                116.6633,
                -8.50273
              ],
              [
                116.66287,
                -8.50325
              ],
              [
                116.6615,
                -8.50471
              ],
              [
                116.66056,
                -8.50496
              ],
              [
                116.65927,
                -8.50496
              ],
              [
                116.658097,
                -8.505103
              ],
              [
                116.65747,
                -8.50518
              ],
              [
                116.6561,
                -8.50561
              ],
              [
                116.655149,
                -8.506109
              ],
              [
                116.654485,
                -8.506457
              ],
              [
                116.653756,
                -8.50684
              ],
              [
                116.65267,
                -8.50741
              ],
              [
                116.65116,
                -8.50784
              ],
              [
                116.64803,
                -8.50955
              ],
              [
                116.64649,
                -8.50986
              ],
              [
                116.64567,
                -8.51037
              ],
              [
                116.64507,
                -8.51119
              ],
              [
                116.64455,
                -8.5123
              ],
              [
                116.64438,
                -8.51273
              ],
              [
                116.64386,
                -8.51492
              ],
              [
                116.64322,
                -8.51578
              ],
              [
                116.64245,
                -8.51775
              ],
              [
                116.64215,
                -8.51848
              ],
              [
                116.64168,
                -8.5196
              ],
              [
                116.64146,
                -8.52037
              ],
              [
                116.64103,
                -8.52213
              ],
              [
                116.64073,
                -8.52406
              ],
              [
                116.63992,
                -8.52582
              ],
              [
                116.63945,
                -8.52655
              ],
              [
                116.63777,
                -8.53097
              ],
              [
                116.6364,
                -8.5341
              ],
              [
                116.63361,
                -8.53964
              ],
              [
                116.63288,
                -8.54213
              ],
              [
                116.63271,
                -8.54324
              ],
              [
                116.63271,
                -8.54535
              ],
              [
                116.63266,
                -8.54569
              ],
              [
                116.63262,
                -8.54616
              ],
              [
                116.63215,
                -8.54762
              ],
              [
                116.63185,
                -8.54826
              ],
              [
                116.63155,
                -8.55131
              ],
              [
                116.63146,
                -8.55217
              ],
              [
                116.63142,
                -8.55307
              ],
              [
                116.63138,
                -8.55354
              ],
              [
                116.63138,
                -8.55376
              ],
              [
                116.63138,
                -8.555
              ],
              [
                116.63138,
                -8.55612
              ],
              [
                116.63134,
                -8.55775
              ],
              [
                116.63095,
                -8.55985
              ],
              [
                116.63073,
                -8.56041
              ],
              [
                116.62979,
                -8.5614
              ],
              [
                116.62786,
                -8.5632
              ],
              [
                116.62661,
                -8.56444
              ],
              [
                116.62516,
                -8.56569
              ],
              [
                116.62503,
                -8.56573
              ],
              [
                116.62323,
                -8.565
              ],
              [
                116.62198,
                -8.56492
              ],
              [
                116.62086,
                -8.56492
              ],
              [
                116.62078,
                -8.5653
              ],
              [
                116.62001,
                -8.56689
              ],
              [
                116.61919,
                -8.56762
              ],
              [
                116.6185,
                -8.56792
              ],
              [
                116.61824,
                -8.56852
              ],
              [
                116.61786,
                -8.56959
              ],
              [
                116.617,
                -8.56994
              ],
              [
                116.61546,
                -8.57041
              ],
              [
                116.61061,
                -8.57281
              ],
              [
                116.60997,
                -8.57303
              ],
              [
                116.60739,
                -8.57281
              ],
              [
                116.60477,
                -8.57247
              ],
              [
                116.60353,
                -8.57234
              ],
              [
                116.60297,
                -8.57238
              ],
              [
                116.59967,
                -8.57243
              ],
              [
                116.59761,
                -8.5723
              ],
              [
                116.59558,
                -8.57208
              ],
              [
                116.59383,
                -8.57174
              ],
              [
                116.59133,
                -8.57105
              ],
              [
                116.58914,
                -8.57032
              ],
              [
                116.58734,
                -8.57015
              ],
              [
                116.58538,
                -8.56985
              ],
              [
                116.58387,
                -8.56981
              ],
              [
                116.58181,
                -8.56929
              ],
              [
                116.5782,
                -8.56843
              ],
              [
                116.57782,
                -8.56822
              ],
              [
                116.57696,
                -8.56783
              ],
              [
                116.57585,
                -8.56728
              ],
              [
                116.5755,
                -8.56706
              ],
              [
                116.57382,
                -8.56629
              ],
              [
                116.57357,
                -8.56607
              ],
              [
                116.57292,
                -8.56586
              ],
              [
                116.57241,
                -8.56599
              ],
              [
                116.56748,
                -8.56775
              ],
              [
                116.56589,
                -8.56822
              ],
              [
                116.56499,
                -8.56873
              ],
              [
                116.56396,
                -8.56899
              ],
              [
                116.56185,
                -8.57067
              ],
              [
                116.55979,
                -8.57234
              ],
              [
                116.5595,
                -8.5726
              ],
              [
                116.55937,
                -8.57324
              ],
              [
                116.55902,
                -8.57517
              ],
              [
                116.55893,
                -8.57543
              ],
              [
                116.55838,
                -8.57564
              ],
              [
                116.55744,
                -8.57564
              ],
              [
                116.55319,
                -8.57504
              ],
              [
                116.55048,
                -8.57461
              ],
              [
                116.54786,
                -8.5741
              ],
              [
                116.54456,
                -8.57363
              ],
              [
                116.54409,
                -8.57354
              ],
              [
                116.53812,
                -8.57264
              ],
              [
                116.53718,
                -8.57243
              ],
              [
                116.5361,
                -8.57165
              ],
              [
                116.53465,
                -8.57079
              ],
              [
                116.53314,
                -8.56981
              ],
              [
                116.53113,
                -8.56843
              ],
              [
                116.52984,
                -8.56758
              ],
              [
                116.52641,
                -8.56964
              ],
              [
                116.52564,
                -8.57011
              ],
              [
                116.52525,
                -8.57041
              ],
              [
                116.52486,
                -8.57058
              ],
              [
                116.52448,
                -8.57084
              ],
              [
                116.52379,
                -8.57135
              ],
              [
                116.5225,
                -8.57221
              ],
              [
                116.51967,
                -8.57491
              ],
              [
                116.51868,
                -8.57629
              ],
              [
                116.51778,
                -8.57745
              ],
              [
                116.51624,
                -8.57899
              ],
              [
                116.51495,
                -8.57998
              ],
              [
                116.51392,
                -8.58075
              ],
              [
                116.51259,
                -8.58187
              ],
              [
                116.51216,
                -8.58208
              ],
              [
                116.51165,
                -8.58255
              ],
              [
                116.51087,
                -8.58311
              ],
              [
                116.50743,
                -8.5877
              ],
              [
                116.50619,
                -8.5883
              ],
              [
                116.50585,
                -8.58856
              ],
              [
                116.50444,
                -8.58959
              ],
              [
                116.50344,
                -8.59045
              ],
              [
                116.50148,
                -8.59371
              ],
              [
                116.50113,
                -8.59483
              ],
              [
                116.50104,
                -8.59573
              ],
              [
                116.50143,
                -8.59659
              ],
              [
                116.50251,
                -8.59835
              ],
              [
                116.50435,
                -8.60174
              ],
              [
                116.50504,
                -8.60315
              ],
              [
                116.50537,
                -8.60491
              ],
              [
                116.50555,
                -8.6062
              ],
              [
                116.50555,
                -8.60693
              ],
              [
                116.50525,
                -8.60774
              ],
              [
                116.50422,
                -8.60865
              ],
              [
                116.50229,
                -8.61006
              ],
              [
                116.50057,
                -8.61109
              ],
              [
                116.50001,
                -8.61169
              ],
              [
                116.49942,
                -8.61212
              ],
              [
                116.49826,
                -8.61277
              ],
              [
                116.49718,
                -8.6132
              ],
              [
                116.49633,
                -8.61332
              ],
              [
                116.49495,
                -8.61362
              ],
              [
                116.49349,
                -8.6141
              ],
              [
                116.49164,
                -8.61495
              ],
              [
                116.49105,
                -8.61495
              ],
              [
                116.49036,
                -8.61487
              ],
              [
                116.49002,
                -8.615
              ],
              [
                116.48937,
                -8.61551
              ],
              [
                116.48843,
                -8.61603
              ],
              [
                116.48693,
                -8.61663
              ],
              [
                116.48349,
                -8.61826
              ],
              [
                116.48194,
                -8.61916
              ],
              [
                116.48032,
                -8.61972
              ],
              [
                116.47877,
                -8.62053
              ],
              [
                116.47826,
                -8.62079
              ],
              [
                116.47735,
                -8.62113
              ],
              [
                116.47452,
                -8.62238
              ],
              [
                116.47229,
                -8.62225
              ],
              [
                116.47117,
                -8.62216
              ],
              [
                116.46997,
                -8.62191
              ],
              [
                116.4677,
                -8.62234
              ],
              [
                116.46757,
                -8.62234
              ],
              [
                116.46349,
                -8.62362
              ],
              [
                116.46195,
                -8.62414
              ],
              [
                116.4607,
                -8.625
              ],
              [
                116.45894,
                -8.62607
              ],
              [
                116.45632,
                -8.62826
              ],
              [
                116.4556,
                -8.62912
              ],
              [
                116.45448,
                -8.63062
              ],
              [
                116.453999,
                -8.631199
              ],
              [
                116.453904,
                -8.631242
              ],
              [
                116.453586,
                -8.631534
              ],
              [
                116.45354,
                -8.63156
              ],
              [
                116.453248,
                -8.631668
              ],
              [
                116.452849,
                -8.631769
              ],
              [
                116.45263,
                -8.63182
              ],
              [
                116.45169,
                -8.63191
              ],
              [
                116.44985,
                -8.63186
              ],
              [
                116.44937,
                -8.63195
              ],
              [
                116.44805,
                -8.63268
              ],
              [
                116.4468,
                -8.63324
              ],
              [
                116.44581,
                -8.63358
              ],
              [
                116.44547,
                -8.63367
              ],
              [
                116.44298,
                -8.63367
              ],
              [
                116.44066,
                -8.63371
              ],
              [
                116.43821,
                -8.63418
              ],
              [
                116.43598,
                -8.63448
              ],
              [
                116.43435,
                -8.63487
              ],
              [
                116.43354,
                -8.63491
              ],
              [
                116.42791,
                -8.63633
              ],
              [
                116.42778,
                -8.63633
              ],
              [
                116.42745,
                -8.63646
              ],
              [
                116.4268,
                -8.63671
              ],
              [
                116.42487,
                -8.63749
              ],
              [
                116.42379,
                -8.638
              ],
              [
                116.423753,
                -8.638044
              ],
              [
                116.423052,
                -8.638367
              ],
              [
                116.422614,
                -8.63839
              ],
              [
                116.42247,
                -8.63839
              ],
              [
                116.422405,
                -8.638401
              ],
              [
                116.422249,
                -8.638409
              ],
              [
                116.420544,
                -8.638716
              ],
              [
                116.41946,
                -8.6389
              ],
              [
                116.4159,
                -8.63955
              ],
              [
                116.41568,
                -8.63955
              ],
              [
                116.414911,
                -8.639746
              ],
              [
                116.414769,
                -8.639773
              ],
              [
                116.414037,
                -8.639921
              ],
              [
                116.41328,
                -8.64006
              ],
              [
                116.412445,
                -8.640245
              ],
              [
                116.410295,
                -8.640682
              ],
              [
                116.406805,
                -8.640342
              ],
              [
                116.403678,
                -8.639729
              ],
              [
                116.401084,
                -8.639157
              ],
              [
                116.40015,
                -8.63894
              ],
              [
                116.39891,
                -8.63864
              ],
              [
                116.398775,
                -8.638649
              ],
              [
                116.398639,
                -8.638619
              ],
              [
                116.395869,
                -8.63882
              ],
              [
                116.395453,
                -8.63885
              ],
              [
                116.394282,
                -8.638693
              ],
              [
                116.392658,
                -8.63823
              ],
              [
                116.387308,
                -8.637882
              ],
              [
                116.385312,
                -8.637747
              ],
              [
                116.383459,
                -8.637406
              ],
              [
                116.382326,
                -8.636974
              ],
              [
                116.379673,
                -8.63598
              ],
              [
                116.37682,
                -8.634575
              ],
              [
                116.371957,
                -8.633989
              ],
              [
                116.370654,
                -8.633973
              ],
              [
                116.368574,
                -8.634167
              ],
              [
                116.366012,
                -8.634462
              ],
              [
                116.363681,
                -8.63475
              ],
              [
                116.362778,
                -8.634706
              ],
              [
                116.362441,
                -8.634981
              ],
              [
                116.361154,
                -8.635263
              ],
              [
                116.358643,
                -8.635258
              ],
              [
                116.352639,
                -8.633953
              ],
              [
                116.35195,
                -8.633845
              ],
              [
                116.349973,
                -8.633148
              ],
              [
                116.346588,
                -8.631368
              ],
              [
                116.343891,
                -8.629924
              ],
              [
                116.339913,
                -8.627811
              ],
              [
                116.336462,
                -8.62604
              ],
              [
                116.335024,
                -8.62534
              ],
              [
                116.333829,
                -8.624207
              ],
              [
                116.332815,
                -8.623606
              ],
              [
                116.332161,
                -8.62357
              ],
              [
                116.331162,
                -8.623373
              ],
              [
                116.329799,
                -8.623002
              ],
              [
                116.328411,
                -8.622549
              ],
              [
                116.327179,
                -8.621604
              ],
              [
                116.325687,
                -8.620569
              ],
              [
                116.324993,
                -8.620422
              ],
              [
                116.323171,
                -8.620041
              ],
              [
                116.321812,
                -8.619506
              ],
              [
                116.320058,
                -8.618763
              ],
              [
                116.318519,
                -8.618307
              ],
              [
                116.316842,
                -8.61707
              ],
              [
                116.313908,
                -8.615784
              ],
              [
                116.312548,
                -8.615129
              ],
              [
                116.311274,
                -8.614152
              ],
              [
                116.309335,
                -8.612321
              ],
              [
                116.307428,
                -8.610943
              ],
              [
                116.306196,
                -8.609585
              ],
              [
                116.304132,
                -8.608112
              ],
              [
                116.30269,
                -8.606479
              ],
              [
                116.302594,
                -8.605719
              ],
              [
                116.302796,
                -8.604755
              ],
              [
                116.303062,
                -8.604267
              ],
              [
                116.303109,
                -8.603292
              ],
              [
                116.302996,
                -8.602977
              ],
              [
                116.30257,
                -8.601339
              ],
              [
                116.302391,
                -8.600432
              ],
              [
                116.302212,
                -8.600265
              ],
              [
                116.300564,
                -8.599848
              ],
              [
                116.300082,
                -8.599384
              ],
              [
                116.298538,
                -8.597779
              ],
              [
                116.294805,
                -8.594599
              ],
              [
                116.292083,
                -8.592247
              ],
              [
                116.289499,
                -8.592527
              ],
              [
                116.286376,
                -8.59301
              ],
              [
                116.280269,
                -8.591626
              ],
              [
                116.27819,
                -8.591473
              ],
              [
                116.27472,
                -8.591371
              ],
              [
                116.271009,
                -8.591295
              ],
              [
                116.27016,
                -8.591032
              ],
              [
                116.269158,
                -8.591013
              ],
              [
                116.267987,
                -8.591182
              ],
              [
                116.266479,
                -8.591239
              ],
              [
                116.264492,
                -8.59165
              ],
              [
                116.261673,
                -8.591572
              ],
              [
                116.26,
                -8.59241
              ],
              [
                116.258157,
                -8.593611
              ],
              [
                116.255504,
                -8.593998
              ],
              [
                116.25434,
                -8.593129
              ],
              [
                116.252831,
                -8.592384
              ],
              [
                116.250555,
                -8.591357
              ],
              [
                116.24923,
                -8.591386
              ],
              [
                116.245313,
                -8.591705
              ],
              [
                116.243814,
                -8.5919
              ],
              [
                116.237799,
                -8.592809
              ],
              [
                116.232476,
                -8.593725
              ],
              [
                116.228265,
                -8.594466
              ],
              [
                116.225504,
                -8.594518
              ],
              [
                116.216472,
                -8.596303
              ],
              [
                116.212861,
                -8.593611
              ],
              [
                116.209805,
                -8.593361
              ],
              [
                116.20679,
                -8.592828
              ],
              [
                116.2035,
                -8.5944
              ],
              [
                116.202618,
                -8.594728
              ],
              [
                116.200266,
                -8.596141
              ],
              [
                116.198654,
                -8.597124
              ],
              [
                116.194541,
                -8.597681
              ],
              [
                116.191981,
                -8.598083
              ],
              [
                116.19004,
                -8.598368
              ],
              [
                116.187977,
                -8.598748
              ],
              [
                116.186254,
                -8.599265
              ],
              [
                116.184265,
                -8.599644
              ],
              [
                116.182923,
                -8.599327
              ],
              [
                116.178119,
                -8.597316
              ],
              [
                116.17573,
                -8.596254
              ],
              [
                116.172097,
                -8.594863
              ],
              [
                116.170096,
                -8.59423
              ],
              [
                116.169236,
                -8.593894
              ],
              [
                116.167027,
                -8.593475
              ],
              [
                116.164166,
                -8.593286
              ],
              [
                116.160322,
                -8.593303
              ],
              [
                116.156415,
                -8.593328
              ],
              [
                116.152934,
                -8.593091
              ],
              [
                116.146974,
                -8.591237
              ],
              [
                116.144737,
                -8.590629
              ],
              [
                116.142274,
                -8.590478
              ],
              [
                116.139857,
                -8.590269
              ],
              [
                116.139189,
                -8.590242
              ],
              [
                116.137848,
                -8.590095
              ],
              [
                116.136612,
                -8.59001
              ],
              [
                116.133174,
                -8.589882
              ],
              [
                116.129503,
                -8.589786
              ],
              [
                116.125394,
                -8.589501
              ],
              [
                116.120735,
                -8.589238
              ],
              [
                116.120127,
                -8.58977
              ],
              [
                116.119641,
                -8.58973
              ],
              [
                116.118545,
                -8.589107
              ],
              [
                116.114771,
                -8.586973
              ],
              [
                116.112734,
                -8.58585
              ],
              [
                116.112284,
                -8.585497
              ],
              [
                116.110735,
                -8.58505
              ],
              [
                116.109881,
                -8.584815
              ],
              [
                116.108412,
                -8.584521
              ],
              [
                116.107306,
                -8.584268
              ],
              [
                116.106452,
                -8.584107
              ],
              [
                116.105546,
                -8.583931
              ],
              [
                116.103876,
                -8.583652
              ],
              [
                116.101504,
                -8.583032
              ],
              [
                116.101769,
                -8.581289
              ],
              [
                116.099864,
                -8.580952
              ],
              [
                116.098234,
                -8.580588
              ],
              [
                116.097008,
                -8.580301
              ],
              [
                116.094129,
                -8.579689
              ],
              [
                116.091698,
                -8.579141
              ],
              [
                116.087563,
                -8.578315
              ],
              [
                116.083951,
                -8.577537
              ],
              [
                116.080553,
                -8.576717
              ],
              [
                116.080179,
                -8.57591
              ],
              [
                116.079956,
                -8.575649
              ],
              [
                116.079442,
                -8.575105
              ],
              [
                116.079259,
                -8.57491
              ],
              [
                116.07917,
                -8.574818
              ],
              [
                116.078513,
                -8.573919
              ],
              [
                116.078436,
                -8.573764
              ],
              [
                116.078414,
                -8.573482
              ],
              [
                116.078431,
                -8.573391
              ],
              [
                116.07847,
                -8.573031
              ],
              [
                116.0785,
                -8.572766
              ],
              [
                116.078506,
                -8.572584
              ],
              [
                116.078515,
                -8.57231
              ],
              [
                116.078405,
                -8.572086
              ],
              [
                116.078214,
                -8.571905
              ],
              [
                116.078004,
                -8.571769
              ],
              [
                116.07777,
                -8.571645
              ],
              [
                116.077649,
                -8.571561
              ],
              [
                116.077195,
                -8.571276
              ],
              [
                116.076477,
                -8.570801
              ],
              [
                116.076332,
                -8.570743
              ],
              [
                116.075665,
                -8.570684
              ],
              [
                116.07409,
                -8.570497
              ],
              [
                116.073406,
                -8.570434
              ],
              [
                116.067545,
                -8.569395
              ],
              [
                116.064436,
                -8.566347
              ],
              [
                116.064788,
                -8.56544
              ],
              [
                116.065129,
                -8.561681
              ],
              [
                116.065316,
                -8.55698
              ],
              [
                116.064229,
                -8.552268
              ],
              [
                116.064567,
                -8.548979
              ],
              [
                116.06555,
                -8.544286
              ],
              [
                116.066376,
                -8.539277
              ],
              [
                116.065308,
                -8.531352
              ],
              [
                116.058072,
                -8.516238
              ],
              [
                116.053953,
                -8.512752
              ],
              [
                116.04855,
                -8.510822
              ],
              [
                116.043139,
                -8.510146
              ],
              [
                116.037408,
                -8.50978
              ],
              [
                116.032637,
                -8.508796
              ],
              [
                116.025647,
                -8.50591
              ],
              [
                116.020891,
                -8.502418
              ],
              [
                116.015833,
                -8.496102
              ],
              [
                116.014584,
                -8.492015
              ],
              [
                116.012372,
                -8.489173
              ],
              [
                116.008754,
                -8.48189
              ],
              [
                116.009154,
                -8.468414
              ],
              [
                116.009433,
                -8.461755
              ],
              [
                116.009535,
                -8.458072
              ],
              [
                116.010266,
                -8.455649
              ],
              [
                116.011078,
                -8.45307
              ],
              [
                116.011487,
                -8.451115
              ],
              [
                116.012458,
                -8.448616
              ],
              [
                116.013985,
                -8.446122
              ],
              [
                116.014962,
                -8.442682
              ],
              [
                116.016903,
                -8.437527
              ],
              [
                116.016836,
                -8.435489
              ],
              [
                116.01702,
                -8.432464
              ],
              [
                116.017616,
                -8.430024
              ],
              [
                116.018727,
                -8.425474
              ],
              [
                116.02725,
                -8.411367
              ],
              [
                116.027882,
                -8.408236
              ],
              [
                116.027812,
                -8.406349
              ],
              [
                116.028029,
                -8.401764
              ],
              [
                116.027909,
                -8.396326
              ],
              [
                116.028667,
                -8.389538
              ],
              [
                116.029234,
                -8.384616
              ],
              [
                116.029277,
                -8.380199
              ],
              [
                116.027423,
                -8.374913
              ],
              [
                116.025037,
                -8.37098
              ],
              [
                116.022482,
                -8.366705
              ],
              [
                116.019078,
                -8.360552
              ],
              [
                116.015762,
                -8.354461
              ],
              [
                116.014022,
                -8.346396
              ],
              [
                116.013731,
                -8.340617
              ],
              [
                116.013941,
                -8.336881
              ],
              [
                116.015729,
                -8.330953
              ],
              [
                116.017175,
                -8.324682
              ],
              [
                116.017553,
                -8.321458
              ],
              [
                116.018982,
                -8.316886
              ],
              [
                116.020586,
                -8.312146
              ],
              [
                116.022343,
                -8.309446
              ],
              [
                116.024089,
                -8.307936
              ],
              [
                116.027053,
                -8.305758
              ],
              [
                116.033124,
                -8.3045
              ],
              [
                116.03762,
                -8.304548
              ],
              [
                116.043336,
                -8.306367
              ],
              [
                116.04847,
                -8.308
              ],
              [
                116.051767,
                -8.310098
              ],
              [
                116.052168,
                -8.310354
              ],
              [
                116.057496,
                -8.313134
              ],
              [
                116.060654,
                -8.314137
              ],
              [
                116.068165,
                -8.315198
              ],
              [
                116.072842,
                -8.314907
              ],
              [
                116.077002,
                -8.311638
              ],
              [
                116.080496,
                -8.311272
              ],
              [
                116.080586,
                -8.311249
              ],
              [
                116.080772,
                -8.31114
              ],
              [
                116.085793,
                -8.309852
              ],
              [
                116.090249,
                -8.31001
              ],
              [
                116.091983,
                -8.310649
              ],
              [
                116.094,
                -8.311051
              ],
              [
                116.100786,
                -8.31389
              ],
              [
                116.112214,
                -8.317759
              ],
              [
                116.115915,
                -8.318585
              ],
              [
                116.122824,
                -8.320356
              ],
              [
                116.128713,
                -8.321826
              ],
              [
                116.135397,
                -8.32226
              ],
              [
                116.137343,
                -8.323884
              ],
              [
                116.139447,
                -8.32564
              ],
              [
                116.143509,
                -8.327684
              ],
              [
                116.146737,
                -8.327257
              ],
              [
                116.148993,
                -8.326739
              ],
              [
                116.150495,
                -8.326075
              ],
              [
                116.153511,
                -8.325502
              ],
              [
                116.156773,
                -8.325688
              ],
              [
                116.158598,
                -8.326722
              ],
              [
                116.160025,
                -8.327597
              ],
              [
                116.160586,
                -8.328322
              ],
              [
                116.162428,
                -8.329553
              ],
              [
                116.163021,
                -8.330897
              ],
              [
                116.16406,
                -8.332258
              ],
              [
                116.164692,
                -8.332811
              ],
              [
                116.165051,
                -8.333225
              ],
              [
                116.165679,
                -8.333685
              ],
              [
                116.167056,
                -8.334528
              ],
              [
                116.168096,
                -8.334432
              ],
              [
                116.169356,
                -8.333851
              ],
              [
                116.169583,
                -8.332791
              ],
              [
                116.16959,
                -8.331984
              ],
              [
                116.169647,
                -8.33054
              ],
              [
                116.169529,
                -8.329286
              ],
              [
                116.169205,
                -8.326904
              ],
              [
                116.168374,
                -8.323094
              ],
              [
                116.168408,
                -8.322416
              ],
              [
                116.168023,
                -8.32077
              ],
              [
                116.168596,
                -8.317875
              ],
              [
                116.169647,
                -8.317029
              ],
              [
                116.17091,
                -8.315697
              ],
              [
                116.171804,
                -8.315293
              ],
              [
                116.172833,
                -8.314464
              ],
              [
                116.176123,
                -8.313045
              ],
              [
                116.177667,
                -8.311764
              ],
              [
                116.183832,
                -8.307155
              ],
              [
                116.188453,
                -8.303864
              ],
              [
                116.19341,
                -8.301078
              ],
              [
                116.198202,
                -8.297789
              ],
              [
                116.201817,
                -8.292986
              ],
              [
                116.204174,
                -8.289541
              ],
              [
                116.206126,
                -8.286688
              ],
              [
                116.209353,
                -8.284043
              ],
              [
                116.218588,
                -8.272145
              ],
              [
                116.225628,
                -8.265465
              ],
              [
                116.23804,
                -8.255135
              ],
              [
                116.249165,
                -8.247069
              ],
              [
                116.259422,
                -8.240997
              ],
              [
                116.273938,
                -8.233799
              ],
              [
                116.282708,
                -8.23123
              ],
              [
                116.295839,
                -8.230871
              ],
              [
                116.298456,
                -8.229871
              ],
              [
                116.301206,
                -8.22656
              ],
              [
                116.303113,
                -8.222407
              ],
              [
                116.305353,
                -8.219091
              ],
              [
                116.312878,
                -8.213535
              ],
              [
                116.317425,
                -8.2113
              ],
              [
                116.321492,
                -8.209531
              ],
              [
                116.327225,
                -8.206623
              ],
              [
                116.332578,
                -8.204686
              ],
              [
                116.337515,
                -8.203786
              ],
              [
                116.341657,
                -8.203698
              ],
              [
                116.346468,
                -8.202974
              ],
              [
                116.36521,
                -8.202683
              ],
              [
                116.379784,
                -8.203633
              ],
              [
                116.394377,
                -8.206778
              ],
              [
                116.405254,
                -8.207217
              ],
              [
                116.414602,
                -8.206771
              ],
              [
                116.42259,
                -8.207718
              ],
              [
                116.4358,
                -8.213686
              ],
              [
                116.443087,
                -8.216426
              ],
              [
                116.451071,
                -8.21717
              ],
              [
                116.462293,
                -8.21711
              ],
              [
                116.472391,
                -8.218759
              ],
              [
                116.482982,
                -8.223315
              ],
              [
                116.492109,
                -8.229743
              ],
              [
                116.500037,
                -8.237161
              ],
              [
                116.503753,
                -8.240034
              ],
              [
                116.509324,
                -8.244759
              ],
              [
                116.516783,
                -8.247499
              ],
              [
                116.525969,
                -8.2474
              ],
              [
                116.535317,
                -8.247339
              ],
              [
                116.542618,
                -8.248575
              ],
              [
                116.548045,
                -8.250295
              ],
              [
                116.554837,
                -8.25136
              ],
              [
                116.563846,
                -8.251777
              ],
              [
                116.574335,
                -8.251226
              ],
              [
                116.583644,
                -8.25169
              ],
              [
                116.593513,
                -8.251452
              ],
              [
                116.598539,
                -8.250928
              ],
              [
                116.60364,
                -8.250975
              ],
              [
                116.61161,
                -8.253552
              ],
              [
                116.615511,
                -8.254756
              ],
              [
                116.626901,
                -8.255027
              ],
              [
                116.632504,
                -8.256079
              ],
              [
                116.641158,
                -8.258327
              ],
              [
                116.651184,
                -8.257143
              ],
              [
                116.657722,
                -8.254292
              ],
              [
                116.663776,
                -8.252848
              ],
              [
                116.67146,
                -8.253928
              ],
              [
                116.678152,
                -8.259383
              ],
              [
                116.693086,
                -8.271312
              ],
              [
                116.700445,
                -8.275931
              ],
              [
                116.713243,
                -8.281172
              ],
              [
                116.717065,
                -8.282756
              ],
              [
                116.718511,
                -8.283355
              ],
              [
                116.720176,
                -8.284473
              ],
              [
                116.721496,
                -8.285101
              ],
              [
                116.724453,
                -8.287911
              ],
              [
                116.724988,
                -8.288312
              ],
              [
                116.726878,
                -8.290113
              ],
              [
                116.729236,
                -8.292289
              ],
              [
                116.730318,
                -8.293729
              ],
              [
                116.731157,
                -8.296438
              ],
              [
                116.732518,
                -8.299424
              ],
              [
                116.733101,
                -8.302318
              ],
              [
                116.734291,
                -8.305132
              ],
              [
                116.735636,
                -8.309577
              ],
              [
                116.736149,
                -8.312279
              ],
              [
                116.736373,
                -8.313457
              ],
              [
                116.736535,
                -8.314312
              ],
              [
                116.736489,
                -8.314758
              ],
              [
                116.736779,
                -8.315596
              ],
              [
                116.739026,
                -8.318464
              ],
              [
                116.742826,
                -8.323509
              ],
              [
                116.745205,
                -8.325721
              ],
              [
                116.75455,
                -8.337076
              ],
              [
                116.757237,
                -8.341799
              ],
              [
                116.75881,
                -8.346357
              ],
              [
                116.761479,
                -8.355468
              ],
              [
                116.763833,
                -8.363794
              ],
              [
                116.765724,
                -8.368668
              ],
              [
                116.767126,
                -8.376203
              ],
              [
                116.767265,
                -8.38122
              ],
              [
                116.766596,
                -8.389054
              ],
              [
                116.765768,
                -8.396729
              ],
              [
                116.767022,
                -8.401637
              ],
              [
                116.767949,
                -8.408542
              ],
              [
                116.767925,
                -8.414499
              ],
              [
                116.766938,
                -8.42233
              ],
              [
                116.765939,
                -8.432983
              ],
              [
                116.763992,
                -8.441748
              ],
              [
                116.760761,
                -8.453011
              ],
              [
                116.755493,
                -8.46292
              ],
              [
                116.748586,
                -8.470363
              ],
              [
                116.740947,
                -8.477859
              ],
              [
                116.737183,
                -8.480496
              ],
              [
                116.726059,
                -8.488743
              ],
              [
                116.719382,
                -8.494024
              ]
            ]
          ]
        ]
      }
    }
  ]
}